CUTE-1 (CO-55)          
1 27844U 03031E   22140.99346336  .00000424  00000+0  20959-3 0  9991
2 27844  98.6792 149.0946 0009896 174.3583 185.7708 14.22439146979966
CUBESAT XI-IV (CO-57)   
1 27848U 03031J   22140.94790832  .00000340  00000+0  17343-3 0  9994
2 27848  98.6835 149.5748 0009537 188.5038 171.5979 14.21997510979772
CUBESAT XI-V            
1 28895U 05043F   22141.11774120  .00001700  00000+0  33082-3 0  9993
2 28895  98.1026 272.9243 0015814 223.8506 136.1442 14.64293582883413
CUTE-1.7+APD II (CO-65) 
1 32785U 08021C   22141.15688077  .00003436  00000+0  36604-3 0  9995
2 32785  97.6558 112.8754 0011805 331.8403  28.2175 14.89492310762496
AAUSAT-II               
1 32788U 08021F   22140.90556064  .00008613  00000+0  74726-3 0  9999
2 32788  97.5322 127.2029 0010281 204.5640 155.5094 14.97249596764310
DELFI-C3 (DO-64)        
1 32789U 08021G   22140.51646147  .00021650  00000+0  12214-2 0  9998
2 32789  97.3407 167.8352 0012203  68.9509 291.3026 15.13109360767707
SEEDS II (CO-66)        
1 32791U 08021J   22140.89008871  .00005888  00000+0  57785-3 0  9996
2 32791  97.6104 118.1426 0010817 284.3987  75.6032 14.92522746763160
SWISSCUBE               
1 35932U 09051B   22141.17830979  .00001202  00000+0  27909-3 0  9995
2 35932  98.5716 356.3516 0008532 125.4161 234.7834 14.56828223672127
BEESAT-1                
1 35933U 09051C   22141.13370375  .00001038  00000+0  24252-3 0  9996
2 35933  98.5659 357.9537 0006512 134.8612 225.3115 14.56848953672271
ITUPSAT1                
1 35935U 09051E   22141.13445525  .00000952  00000+0  22743-3 0  9995
2 35935  98.5761 358.0175 0008738 140.0715 220.1126 14.55960806671907
TISAT 1                 
1 36799U 10035E   22141.10506535  .00004453  00000+0  43648-3 0  9991
2 36799  98.1847 350.4717 0011832 179.4500 180.6733 14.92751178643681
M-CUBED & EXP-1 PRIME   
1 37855U 11061F   22141.24200631  .00025784  00000+0  11323-2 0  9992
2 37855 101.7054 245.9508 0155486 144.1677 217.0089 15.11656346577127
AEROCUBE 4.5A           
1 38767U 12048K   22141.22105901  .00008046  00000+0  55379-3 0  9995
2 38767  64.6644 196.3560 0176914 269.9889  88.0952 14.94639298146718
AEROCUBE 4.5B           
1 38768U 12048L   22141.18839602  .00011178  00000+0  69700-3 0  9996
2 38768  64.6650 151.6394 0164662 265.3819  92.8473 14.99281743147068
STRAND-1                
1 39090U 13009E   22141.11127164  .00000341  00000+0  13402-3 0  9997
2 39090  98.4063 339.9602 0009088   1.0716 359.0487 14.35288656483475
BRITE-AUSTRIA           
1 39091U 13009F   22141.09562148  .00000258  00000+0  10501-3 0  9994
2 39091  98.4078 339.1098 0010596   6.5483 353.5839 14.35266055483503
SOMP                    
1 39134U 13015E   22141.20851298  .00026341  00000+0  95483-3 0  9992
2 39134  64.8611 151.2621 0034319 285.6915  74.0431 15.27742021503077
BEESAT-3                
1 39135U 13015F   22141.21726196  .00017922  00000+0  74447-3 0  9994
2 39135  64.8655 186.6451 0036735 292.4631  67.2610 15.23308566502399
BEESAT-2                
1 39136U 13015G   22141.24826898  .00017290  00000+0  74977-3 0  9994
2 39136  64.8741 194.5322 0014903 296.0392  63.9201 15.22386873501774
NEE-01 PEGASO           
1 39151U 13018B   22140.53874208  .00002195  00000+0  29062-3 0  9996
2 39151  97.9886 246.3024 0016428 350.5241   9.5659 14.80868241489557
ESTCUBE 1               
1 39161U 13021C   22141.18158059  .00001654  00000+0  26563-3 0  9994
2 39161  97.9079 219.1266 0009907 142.2866 217.9082 14.72892207485451
POPACS 1                
1 39268U 13055D   22141.05989193  .00013032  00000+0  33769-3 0  9995
2 39268  80.9977 268.9380 0574006 283.2184  70.5610 14.49543055449338
POPACS 2                
1 39269U 13055E   22140.78450215  .00015502  00000+0  42325-3 0  9995
2 39269  81.0107 325.2244 0649709  69.1833 297.7672 14.32496461446223
POPACS 3                
1 39270U 13055F   22141.06889022  .00010640  00000+0  32219-3 0  9990
2 39270  81.0156 357.2917 0691320 159.9652 203.0172 14.21479110424742
ZACUBE-1 (TSHEPISOSAT)  
1 39417U 13066B   22141.16298876  .00003358  00000+0  41461-3 0  9994
2 39417  97.6345 113.8987 0059217 132.9174 227.7032 14.82233893459080
WNISAT-1                
1 39423U 13066H   22141.23917049  .00000723  00000+0  15219-3 0  9994
2 39423  97.7560  24.7165 0173359 222.6184 136.1455 14.53458069450509
TRITON-1                
1 39427U 13066M   22141.08781257  .00004023  00000+0  63333-3 0  9998
2 39427  97.8118  78.0755 0111964 353.1058   6.8601 14.68880693454760
DELFI-N3XT              
1 39428U 13066N   22141.21517086  .00007144  00000+0  11017-2 0  9999
2 39428  97.8134  76.7466 0118122   5.8925 354.3639 14.69038563454539
GOMX-1                  
1 39430U 13066Q   22141.18096091  .00001641  00000+0  29958-3 0  9996
2 39430  97.8125  49.9388 0150519 130.5330 230.9112 14.60106634452314
CUBEBUG-2 (LO-74)       
1 39440U 13066AA  22141.15311611  .00002342  00000+0  32395-3 0  9990
2 39440  97.7241  99.8636 0077668 219.1093 140.4489 14.76930417456256
NEE-02 KRYSAOR          
1 39441U 13066AB  22141.13219241  .00001632  00000+0  23429-3 0  9994
2 39441  97.7353  97.0443 0079305 232.8151 126.5802 14.75688569456008
FUNCUBE-1 (AO-73)       
1 39444U 13066AE  22141.19943330  .00004609  00000+0  55266-3 0  9997
2 39444  97.6227 116.3354 0058317 121.4408 239.2527 14.83291213457488
UWE-3                   
1 39446U 13066AG  22141.15452050  .00002588  00000+0  33962-3 0  9992
2 39446  97.6835 106.4039 0068839 176.8587 183.3072 14.79475092456428
AEROCUBE 5A             
1 39465U 13072D   22141.24097174  .00044100  00000+0  27063-2 0  9992
2 39465 120.4829 211.0428 0199449 248.2940 109.6777 14.94702764145559
AEROCUBE 5B             
1 39466U 13072E   22141.22515061  .00110384  00000+0  45271-2 0  9990
2 39466 120.4625 294.1704 0151122 269.7377  88.6376 15.13626873146607
BRITE-CA1 (TORONTO)     
1 40020U 14033L   22141.20312052  .00000876  00000+0  15623-3 0  9992
2 40020  97.7755 301.5545 0086602 351.3643   8.6067 14.67011324423665
DUCHIFAT-1              
1 40021U 14033M   22140.58971026  .00006387  00000+0  62397-3 0  9998
2 40021  98.0104  90.2927 0013916 127.9425 232.3053 14.92671984430545
NANOSATC-BR1            
1 40024U 14033Q   22141.11016464  .00005599  00000+0  56327-3 0  9997
2 40024  97.9834  84.3345 0013206 131.8857 228.3490 14.91559117429909
QB50P1                  
1 40025U 14033R   22141.06730198  .00003865  00000+0  40241-3 0  9991
2 40025  97.9590  78.2583 0013157 141.1018 219.1149 14.90369654429681
QB50P2                  
1 40032U 14033Y   22141.21668989  .00004608  00000+0  48528-3 0  9996
2 40032  97.9367  73.8911 0012728 138.3448 221.8741 14.89808504429560
PERSEUS-M2              
1 40037U 14033AD  22141.18978776  .00001638  00000+0  18851-3 0  9991
2 40037  97.8968  63.5659 0014600 161.6660 198.5084 14.87050837429074
PERSEUS-M1              
1 40039U 14033AF  22141.17741193  .00001595  00000+0  18552-3 0  9993
2 40039  97.8873  61.3666 0014503 160.5982 199.5788 14.86661702428958
POLYITAN-1              
1 40042U 14033AJ  22140.61175374  .00004712  00000+0  48908-3 0  9999
2 40042  97.9691  78.9528 0015540 135.6148 224.6318 14.90353925429502
TIGRISAT                
1 40043U 14033AK  22140.48160712  .00001781  00000+0  26535-3 0  9990
2 40043  97.6570 331.2522 0057938 246.5628 112.9484 14.74945479425509
AEROCUBE 6A             
1 40045U 14033AM  22141.08734478  .00001942  00000+0  28018-3 0  9992
2 40045  97.6683 340.4973 0055554 232.3415 127.2749 14.76325698425743
AEROCUBE 6B             
1 40046U 14033AN  22141.07016398  .00003474  00000+0  49244-3 0  9992
2 40046  97.6594 338.9626 0054746 230.5763 129.0595 14.76607591425744
UKUBE-1                 
1 40074U 14037F   22141.13624228  .00002988  00000+0  35463-3 0  9998
2 40074  98.3864  20.3742 0005091  31.2584 328.8929 14.85296704426011
BRITE-PL2 (HEWELIUSZ)   
1 40119U 14049B   22141.25842635  .00001866  00000+0  22434-3 0  9996
2 40119  97.8817 237.1663 0016516 335.5320  24.5109 14.85074033419971
FIREBIRD 4              
1 40378U 15003C   22141.17524619  .00031867  00000+0  96553-3 0  9991
2 40378  99.1048   0.2250 0103699 117.2330 243.9517 15.28874066404263
GRIFEX                  
1 40379U 15003D   22141.11869705  .00021313  00000+0  76017-3 0  9992
2 40379  99.1147 346.3701 0117851 158.4653 202.1595 15.22507943403464
CP10 (EXOCUBE)          
1 40380U 15003E   22141.09564626  .00015787  00000+0  60985-3 0  9990
2 40380  99.1234 339.3120 0124970 181.9717 178.1036 15.19325051403008
TIANWANG 1A (TW-1A)     
1 40928U 15051D   22141.06908794  .00054952  00000+0  74069-3 0  9991
2 40928  97.0409 163.9982 0010644 123.1214 299.4704 15.57589233373973
EXACTVIEW 9             
1 40936U 15052G   22139.47983818  .00002646  00000+0  27696-3 0  9990
2 40936   6.0041  20.3379 0009734 107.2072 252.9122 14.77099480358964
AEROCUBE 5C             
1 40965U 15058B   22141.20511717  .00002522  00000+0  28756-3 0  9998
2 40965  64.7767 174.0368 0196338 208.8962 150.1161 14.75546293144940
AEROCUBE 7              
1 40966U 15058C   22141.21366143  .00003201  00000+0  35708-3 0  9991
2 40966  64.7768 171.2777 0194422 208.5664 150.4681 14.76081243144943
ATHENOXAT 1             
1 41168U 15077C   22141.08036539  .00021737  00000+0  93244-3 0  9998
2 41168  14.9905 293.2359 0009683 213.4260 292.9058 15.20313818356132
GALASSIA                
1 41170U 15077E   22141.03164616  .00019173  00000+0  83067-3 0  9997
2 41170  14.9887 284.2141 0010720 243.0194 116.9033 15.19819571356045
VELOX-II                
1 41171U 15077F   22140.94173786  .00014634  00000+0  71460-3 0  9996
2 41171  14.9926 356.6971 0007920  83.6240 276.4983 15.15380696355438
HORYU-4                 
1 41340U 16012D   22141.21433419  .00005972  00000+0  42463-3 0  9993
2 41340  31.0032 173.0665 0013407 288.5618  71.3562 15.03149258343624
